STARLINK-32627          
1 62315U 24239Q   26068.64797227  .00018075  00000+0  62111-3 0  9997
2 62315  53.1585 194.3422 0001034  84.6982 275.4137 15.30188683 69373
TRANSPORTER-12 OBJECT AZ
1 62656U 25009AZ  26068.71026235  .00016057  00000+0  54903-3 0  9991
2 62656  97.3981 151.9913 0000987  45.3581 314.7740 15.30349724 63792
